{
  "cities": [
    {
      "id": "riyadh",
      "name": "الرياض",
      "nameEn": "Riyadh",
      "lat": 24.7136,
      "lng": 46.6753,
      "neighborhoods": [
        {
          "id": "olaya",
          "name": "العليا",
          "nameEn": "Olaya",
          "lat": 24.6911,
          "lng": 46.6833
        },
        {
          "id": "almalaz",
          "name": "الملز",
          "nameEn": "Al Malaz",
          "lat": 24.6699,
          "lng": 46.7093
        },
        {
          "id": "alwazarat",
          "name": "الوزارات",
          "nameEn": "Al Wazarat",
          "lat": 24.6830,
          "lng": 46.7144
        },
        {
          "id": "alworood",
          "name": "الورود",
          "nameEn": "Al Worood",
          "lat": 24.7553,
          "lng": 46.6948
        },
        {
          "id": "alnaseem",
          "name": "النسيم",
          "nameEn": "Al Naseem",
          "lat": 24.7680,
          "lng": 46.8062
        },
        {
          "id": "alrabiea",
          "name": "الربيع",
          "nameEn": "Al Rabiea",
          "lat": 24.7978,
          "lng": 46.6610
        },
        {
          "id": "alrawabi",
          "name": "الروابي",
          "nameEn": "Al Rawabi",
          "lat": 24.7667,
          "lng": 46.7458
        },
        {
          "id": "alsulemaniyah",
          "name": "السليمانية",
          "nameEn": "Al Sulemaniyah",
          "lat": 24.7129,
          "lng": 46.7121
        },
        {
          "id": "alhittin",
          "name": "حطين",
          "nameEn": "Hittin",
          "lat": 24.7572,
          "lng": 46.6183
        },
        {
          "id": "alhamra",
          "name": "الحمراء",
          "nameEn": "Al Hamra",
          "lat": 24.7394,
          "lng": 46.7317
        },
        {
          "id": "kingfahd",
          "name": "حي الملك فهد",
          "nameEn": "King Fahd District",
          "lat": 24.7650,
          "lng": 46.7283
        },
        {
          "id": "almurabba",
          "name": "المربع",
          "nameEn": "Al Murabba",
          "lat": 24.6372,
          "lng": 46.7133
        }
      ]
    },
    {
      "id": "jeddah",
      "name": "جدة",
      "nameEn": "Jeddah",
      "lat": 21.4858,
      "lng": 39.1925,
      "neighborhoods": [
        {
          "id": "albalad",
          "name": "البلد",
          "nameEn": "Al Balad",
          "lat": 21.4858,
          "lng": 39.1925
        },
        {
          "id": "alhamra",
          "name": "الحمراء",
          "nameEn": "Al Hamra",
          "lat": 21.5169,
          "lng": 39.1693
        },
        {
          "id": "alsalamah",
          "name": "السلامة",
          "nameEn": "Al Salamah",
          "lat": 21.6047,
          "lng": 39.1213
        },
        {
          "id": "alrawdah",
          "name": "الروضة",
          "nameEn": "Al Rawdah",
          "lat": 21.5565,
          "lng": 39.1465
        },
        {
          "id": "alkhalidiyyah",
          "name": "الخالدية",
          "nameEn": "Al Khalidiyyah",
          "lat": 21.5830,
          "lng": 39.1099
        },
        {
          "id": "alshati",
          "name": "الشاطئ",
          "nameEn": "Al Shati",
          "lat": 21.6388,
          "lng": 39.1054
        },
        {
          "id": "alnahda",
          "name": "النهضة",
          "nameEn": "Al Nahda",
          "lat": 21.4953,
          "lng": 39.2459
        },
        {
          "id": "alsamer",
          "name": "السامر",
          "nameEn": "Al Samer",
          "lat": 21.5321,
          "lng": 39.1727
        },
        {
          "id": "alzahra",
          "name": "الزهراء",
          "nameEn": "Al Zahra",
          "lat": 21.5876,
          "lng": 39.1443
        },
        {
          "id": "almurjan",
          "name": "المرجان",
          "nameEn": "Al Murjan",
          "lat": 21.7076,
          "lng": 39.0903
        }
      ]
    },
    {
      "id": "dammam",
      "name": "الدمام",
      "nameEn": "Dammam",
      "lat": 26.4207,
      "lng": 50.0888,
      "neighborhoods": [
        {
          "id": "alaziziyah",
          "name": "العزيزية",
          "nameEn": "Al Aziziyah",
          "lat": 26.4297,
          "lng": 50.0916
        },
        {
          "id": "alfaisaliyah",
          "name": "الفيصلية",
          "nameEn": "Al Faisaliyah",
          "lat": 26.4392,
          "lng": 50.1039
        },
        {
          "id": "abdullah",
          "name": "حي الملك عبدالله",
          "nameEn": "King Abdullah",
          "lat": 26.3932,
          "lng": 50.1863
        },
        {
          "id": "alqadisiyah",
          "name": "القادسية",
          "nameEn": "Al Qadisiyah",
          "lat": 26.4499,
          "lng": 50.1098
        },
        {
          "id": "alanood",
          "name": "العنود",
          "nameEn": "Al Anood",
          "lat": 26.4225,
          "lng": 50.0943
        },
        {
          "id": "alrakah",
          "name": "الراكة",
          "nameEn": "Al Rakah",
          "lat": 26.3863,
          "lng": 50.1936
        },
        {
          "id": "albadiyah",
          "name": "البادية",
          "nameEn": "Al Badiyah",
          "lat": 26.4455,
          "lng": 50.0694
        },
        {
          "id": "aldoha",
          "name": "الدوحة",
          "nameEn": "Al Doha",
          "lat": 26.4311,
          "lng": 50.1137
        }
      ]
    },
    {
      "id": "makkah",
      "name": "مكة المكرمة",
      "nameEn": "Makkah",
      "lat": 21.3891,
      "lng": 39.8579,
      "neighborhoods": [
        {
          "id": "alaziziyah-makkah",
          "name": "العزيزية",
          "nameEn": "Al Aziziyah",
          "lat": 21.3735,
          "lng": 39.9327
        },
        {
          "id": "alshshawqiyyah",
          "name": "الشوقية",
          "nameEn": "Al Shawqiyyah",
          "lat": 21.3702,
          "lng": 39.8131
        },
        {
          "id": "alnuzahah",
          "name": "النزهة",
          "nameEn": "Al Nuzahah",
          "lat": 21.4011,
          "lng": 39.8349
        },
        {
          "id": "alazizia",
          "name": "العزيزية",
          "nameEn": "Al Azizia",
          "lat": 21.3587,
          "lng": 39.9540
        },
        {
          "id": "alrussaifah",
          "name": "الرصيفة",
          "nameEn": "Al Russaifah",
          "lat": 21.3972,
          "lng": 39.8802
        },
        {
          "id": "alhajlah",
          "name": "الحجلة",
          "nameEn": "Al Hajlah",
          "lat": 21.4112,
          "lng": 39.9010
        },
        {
          "id": "alnaseem-makkah",
          "name": "النسيم",
          "nameEn": "Al Naseem",
          "lat": 21.4195,
          "lng": 39.8603
        }
      ]
    },
    {
      "id": "medinah",
      "name": "المدينة المنورة",
      "nameEn": "Medinah",
      "lat": 24.5247,
      "lng": 39.5692,
      "neighborhoods": [
        {
          "id": "quba",
          "name": "قباء",
          "nameEn": "Quba",
          "lat": 24.4836,
          "lng": 39.6143
        },
        {
          "id": "alawali",
          "name": "العوالي",
          "nameEn": "Al Awali",
          "lat": 24.5469,
          "lng": 39.5406
        },
        {
          "id": "alshuhada",
          "name": "الشهداء",
          "nameEn": "Al Shuhada",
          "lat": 24.4823,
          "lng": 39.5723
        },
        {
          "id": "alharrah",
          "name": "الحرة",
          "nameEn": "Al Harrah",
          "lat": 24.5033,
          "lng": 39.5833
        },
        {
          "id": "alsalam",
          "name": "السلام",
          "nameEn": "Al Salam",
          "lat": 24.5321,
          "lng": 39.5747
        },
        {
          "id": "alnakheel",
          "name": "النخيل",
          "nameEn": "Al Nakheel",
          "lat": 24.5137,
          "lng": 39.5521
        }
      ]
    },
    {
      "id": "taif",
      "name": "الطائف",
      "nameEn": "Taif",
      "lat": 21.2702,
      "lng": 40.4165,
      "neighborhoods": [
        {
          "id": "alsalamah-taif",
          "name": "السلامة",
          "nameEn": "Al Salamah",
          "lat": 21.2778,
          "lng": 40.4154
        },
        {
          "id": "alshifa",
          "name": "الشفا",
          "nameEn": "Al Shifa",
          "lat": 21.2102,
          "lng": 40.3512
        },
        {
          "id": "alnuzha-taif",
          "name": "النزهة",
          "nameEn": "Al Nuzha",
          "lat": 21.2833,
          "lng": 40.4092
        },
        {
          "id": "alwahaah",
          "name": "الوحاة",
          "nameEn": "Al Wahaah",
          "lat": 21.2631,
          "lng": 40.4325
        }
      ]
    },
    {
      "id": "abha",
      "name": "أبها",
      "nameEn": "Abha",
      "lat": 18.2164,
      "lng": 42.5053,
      "neighborhoods": [
        {
          "id": "alkhalidia-abha",
          "name": "الخالدية",
          "nameEn": "Al Khalidia",
          "lat": 18.2230,
          "lng": 42.5119
        },
        {
          "id": "almansak",
          "name": "المنسك",
          "nameEn": "Al Mansak",
          "lat": 18.2093,
          "lng": 42.5001
        },
        {
          "id": "alsulaimaniah-abha",
          "name": "السليمانية",
          "nameEn": "Al Sulaimaniah",
          "lat": 18.2279,
          "lng": 42.4972
        }
      ]
    }
  ]
}